{
  "type": "FeatureCollection",
  "features": [
    {
      "type": "Feature",
      "properties": {
        "nombre": "Zona de estudio"
      },
      "geometry": {
        "type": "Polygon",
        "coordinates": [
          [
            [-74.0808, 4.6269],
            [-74.0844, 4.6319],
            [-74.0908, 4.6344],
            [-74.0939, 4.6394],
            [-74.0858, 4.6467],
            [-74.0792, 4.6422],
            [-74.0792, 4.6347],
            [-74.0797, 4.6303],
            [-74.0808, 4.6269]
          ]
        ]
      }
    }
  ]
}